OBJECT_NAME,OBJECT_ID,EPOCH,MEAN_MOTION,ECCENTRICITY,INCLINATION,RA_OF_ASC_NODE,ARG_OF_PERICENTER,MEAN_ANOMALY,EPHEMERIS_TYPE,CLASSIFICATION_TYPE,NORAD_CAT_ID,ELEMENT_SET_NO,REV_AT_EPOCH,BSTAR,MEAN_MOTION_DOT,MEAN_MOTION_DDOT
OSCAR 7 (AO-7),1974-089B,2026-06-08T20:35:03.253920,12.53697926,.001249,101.9901,173.0172,145.6484,337.4400,0,U,7530,999,35947,.60281E-4,-.37E-6,0
PHASE 3B (AO-10),1983-058B,2026-06-07T04:08:14.383680,2.05872980,.60142661,25.9048,221.2242,112.9115,319.2048,0,U,14129,999,29528,0,-.194E-5,0
UOSAT 2 (UO-11),1984-021B,2026-06-08T15:07:05.587392,14.90763045,.0006842,97.8053,125.3005,201.4701,158.6231,0,U,14781,999,25585,.13628E-3,.1284E-4,0
LUSAT (LO-19),1990-005G,2026-06-08T01:00:50.703264,14.34120497,.00106669,98.8852,180.5956,229.5628,130.4627,0,U,20442,999,90108,.63300186E-4,.13E-5,0
EYESAT A (AO-27),1993-061C,2026-06-08T17:58:20.786016,14.30940118,.0009403,98.6881,227.1651,121.6345,238.5756,0,U,22825,999,70579,.54073E-4,.98E-6,0
ITAMSAT (IO-26),1993-061D,2026-06-08T17:32:19.453344,14.31366720,.0010048,98.6829,227.0636,106.9907,253.2378,0,U,22826,999,70610,.55484E-4,.103E-5,0
RADIO ROSTO (RS15),1994-085A,2026-06-08T18:42:03.503808,11.27583634,.0155693,64.8186,316.8145,5.4303,354.8266,0,U,23439,999,29495,.2661E-3,-.33E-6,0
JAS-2 (FO-29),1996-046B,2026-06-08T19:24:22.601952,13.53273721,.0350764,98.5248,9.8285,118.1164,245.5894,0,U,24278,999,47203,.23431E-4,-.9E-7,0
TECHSAT 1B (GO-32),1998-043D,2026-06-08T16:55:52.512096,14.24426807,.0000575,99.0065,152.2503,185.5872,174.5300,0,U,25397,999,45012,.51506E-4,.72E-6,0
ISS (ZARYA),1998-067A,2026-06-08T19:17:55.071168,15.49672912,.0006923,51.6336,341.5878,148.5365,211.6039,0,U,25544,999,57045,.13425E-3,.7129E-4,0
PCSAT (NO-44),2001-043C,2026-06-08T16:59:32.490816,14.31953256,.000611,67.0512,266.2023,264.2688,95.7717,0,U,26931,999,28923,.80309E-4,.132E-5,0
SAUDISAT 1C (SO-50),2002-058C,2026-06-08T14:11:31.852896,14.83028843,.0075448,64.5503,155.5805,264.0559,95.1944,0,U,27607,999,26318,.1494E-3,.1122E-4,0
CUTE-1 (CO-55),2003-031E,2026-06-08T17:56:58.128000,14.24330726,.0008975,98.6735,168.4129,203.1783,156.8992,0,U,27844,999,19047,.15325E-3,.31E-5,0
CUBESAT XI-IV (CO-57),2003-031J,2026-06-07T23:00:57.894624,14.23616071,.00085151,98.6766,167.3539,225.8669,134.1810,0,U,27848,999,19006,.14070546E-3,.277E-5,0
MOZHAETS 4 (RS22),2003-042A,2026-06-08T20:50:02.736672,14.73453343,.001018,98.3475,343.9923,299.6521,167.4636,0,U,27939,999,21432,.15736E-3,.968E-5,0
CUBESAT XI-V,2005-043F,2026-06-07T22:59:29.763168,14.72607812,.00130883,98.2976,314.3867,231.5140,128.4894,0,U,28895,999,10039,.26180301E-3,.1615E-4,0
CUTE-1.7+APD II (CO-65),2008-021C,2026-06-08T18:19:14.310912,15.09373528,.0010357,97.8271,141.0073,63.4149,296.8139,0,U,32785,999,98392,.39011E-3,.6172E-4,0
YUBILEINY (RS30),2008-025A,2026-06-08T21:21:10.237248,12.43178844,.0019223,82.5048,0.6025,332.6006,27.4059,0,U,32953,999,81866,.10641E-3,.25E-6,0
KKS-1 (KISEKI),2009-002H,2026-06-08T19:45:30.624768,14.83102975,.0007035,98.1193,82.1331,327.2782,32.7994,0,U,33499,999,93495,.17809E-3,.1395E-4,0
SWISSCUBE,2009-051B,2026-06-08T00:00:58.440960,14.62465103,.00054748,98.4042,66.7288,236.3791,123.6888,0,U,35932,999,88781,.23775073E-3,.1155E-4,0
BEESAT-1,2009-051C,2026-06-08T19:50:34.156608,14.61707311,.0003912,98.3972,67.2222,250.2428,109.8351,0,U,35933,999,88796,.17692E-3,.832E-5,0
ITUPSAT1,2009-051E,2026-06-07T23:43:00.084288,14.60427678,.00060745,98.4056,65.5723,268.4530,91.5974,0,U,35935,999,88739,.1903704E-3,.873E-5,0
XIWANG-1 (HOPE-1),2009-072B,2026-06-08T19:23:29.422752,13.16438385,.0006799,100.4026,113.7740,252.8596,107.1773,0,U,36122,999,79190,-.59389E-3,-.271E-5,0
O/OREOS (USA 219),2010-062C,2026-06-08T13:22:02.031744,14.93708178,.0012387,71.9704,99.8869,81.9888,278.2687,0,U,37224,999,11535,.24866E-3,.2574E-4,0
JUGNU,2011-058B,2026-06-08T05:51:26.000352,14.13774450,.00185229,19.9622,2.7589,337.7505,350.9134,0,U,37839,999,75775,.83199979E-4,.426E-5,0
STRAND-1,2013-009E,2026-06-08T18:30:14.710176,14.37158481,.0007427,98.3921,340.2126,254.1198,105.9170,0,U,39090,999,69585,.11756E-3,.307E-5,0
ZACUBE-1 (TSHEPISOSAT),2013-066B,2026-06-08T19:24:23.637888,15.01138401,.0040039,97.8093,122.1001,277.1719,82.4953,0,U,39417,999,67947,.32547E-3,.4176E-4,0
GOMX-1,2013-066Q,2026-06-08T19:26:56.359392,14.69430163,.013013,97.6493,0.8016,104.1329,257.4378,0,U,39430,999,66868,.34917E-3,.2304E-4,0
